ATLAS CENTAUR R/B       
1 06155U 72065B   26032.74688657  .00001473  00000+0  20438-3 0  9995
2 06155  35.0004 156.3723 0033207  67.1213 293.2989 14.77575560835941
SL-8 R/B                
1 08459U 75112B   26033.23626541  .00000227  00000+0  83135-4 0  9999
2 08459  74.0597  84.1355 0015704 189.0694 171.0179 14.38185360626773
SL-3 R/B                
1 10114U 77057B   26033.22576054  .00012483  00000+0  27142-3 0  9994
2 10114  97.5717 203.6259 0008387  56.3109 303.8938 15.44441319662859
SEASAT 1                
1 10967U 78064A   26033.01040836  .00000300  00000+0  12226-3 0  9992
2 10967 108.0164  50.6209 0001428 290.5033  69.5959 14.46128387501355
SL-14 R/B               
1 11267U 79011B   26033.30112246  .00000780  00000+0  74515-4 0  9998
2 11267  82.5261 130.1463 0016271 170.6370 189.5157 14.91860947523502
SL-8 R/B                
1 11574U 79089B   26033.30259929  .00000304  00000+0  10002-3 0  9996
2 11574  74.0695 156.5448 0016300 334.0140  26.0196 14.42326806431007
SL-14 R/B               
1 11672U 80005B   26033.29090784  .00000806  00000+0  79127-4 0  9996
2 11672  82.5170 340.8036 0014156 283.4290  76.5351 14.90879069471216
SL-8 R/B                
1 12139U 81003B   26033.28925984  .00023965  00000+0  63639-3 0  9993
2 12139  82.9400 322.7236 0264784 302.4197  55.1666 15.09616738309336
SL-3 R/B                
1 12465U 81046B   26033.27703571  .00012632  00000+0  30352-3 0  9992
2 12465  81.2350 332.2239 0020339 138.0032 222.2775 15.40980451432976
SL-3 R/B                
1 12904U 81103B   26033.25105467  .00004215  00000+0  18887-3 0  9999
2 12904  81.1563 254.9991 0014090  47.2296 313.0118 15.20938682967840
SL-3 R/B                
1 13068U 82013B   26033.27443350  .00005027  00000+0  22022-3 0  9998
2 13068  81.1729 202.2621 0021870 300.4965  59.4107 15.21613515398969
SL-3 R/B                
1 13154U 82039B   26033.27055733  .00002305  00000+0  13945-3 0  9996
2 13154  81.1627 256.7843 0030074  80.3351 280.1270 15.09880558376296
