CCSDS_OMM_VERS = 2.0
CREATION_DATE  = 
ORIGINATOR     = 

OBJECT_NAME    = ATLAS CENTAUR R/B
OBJECT_ID      = 1972-065B
CENTER_NAME    = EARTH
REF_FRAME      = TEME
TIME_SYSTEM    = UTC
MEAN_ELEMENT_THEORY = SGP/SGP4

EPOCH          = 2026-02-01T17:55:30.999648
MEAN_MOTION    = 14.77575560
ECCENTRICITY   = .00332071
INCLINATION    = 35.0004
RA_OF_ASC_NODE = 156.3723
ARG_OF_PERICENTER = 67.1213
MEAN_ANOMALY   = 293.2989

EPHEMERIS_TYPE = 0
CLASSIFICATION_TYPE = U
NORAD_CAT_ID   = 6155
ELEMENT_SET_NO = 999
REV_AT_EPOCH   = 83594
BSTAR          = .20438335E-3
MEAN_MOTION_DOT = .1473E-4
MEAN_MOTION_DDOT = 0

CCSDS_OMM_VERS = 2.0
CREATION_DATE  = 
ORIGINATOR     = 

OBJECT_NAME    = SL-8 R/B
OBJECT_ID      = 1975-112B
CENTER_NAME    = EARTH
REF_FRAME      = TEME
TIME_SYSTEM    = UTC
MEAN_ELEMENT_THEORY = SGP/SGP4

EPOCH          = 2026-02-02T05:40:13.331424
MEAN_MOTION    = 14.38185360
ECCENTRICITY   = .00157049
INCLINATION    = 74.0597
RA_OF_ASC_NODE = 84.1355
ARG_OF_PERICENTER = 189.0694
MEAN_ANOMALY   = 171.0179

EPHEMERIS_TYPE = 0
CLASSIFICATION_TYPE = U
NORAD_CAT_ID   = 8459
ELEMENT_SET_NO = 999
REV_AT_EPOCH   = 62677
BSTAR          = .83135461E-4
MEAN_MOTION_DOT = .227E-5
MEAN_MOTION_DDOT = 0

CCSDS_OMM_VERS = 2.0
CREATION_DATE  = 
ORIGINATOR     = 

OBJECT_NAME    = SL-3 R/B
OBJECT_ID      = 1977-057B
CENTER_NAME    = EARTH
REF_FRAME      = TEME
TIME_SYSTEM    = UTC
MEAN_ELEMENT_THEORY = SGP/SGP4

EPOCH          = 2026-02-02T05:25:05.710656
MEAN_MOTION    = 15.44441319
ECCENTRICITY   = .00083873
INCLINATION    = 97.5717
RA_OF_ASC_NODE = 203.6259
ARG_OF_PERICENTER = 56.3109
MEAN_ANOMALY   = 303.8938

EPHEMERIS_TYPE = 0
CLASSIFICATION_TYPE = U
NORAD_CAT_ID   = 10114
ELEMENT_SET_NO = 999
REV_AT_EPOCH   = 66285
BSTAR          = .27141967E-3
MEAN_MOTION_DOT = .12483E-3
MEAN_MOTION_DDOT = 0

CCSDS_OMM_VERS = 2.0
CREATION_DATE  = 
ORIGINATOR     = 

OBJECT_NAME    = SEASAT 1
OBJECT_ID      = 1978-064A
CENTER_NAME    = EARTH
REF_FRAME      = TEME
TIME_SYSTEM    = UTC
MEAN_ELEMENT_THEORY = SGP/SGP4

EPOCH          = 2026-02-02T00:14:59.282304
MEAN_MOTION    = 14.46128387
ECCENTRICITY   = .00014283
INCLINATION    = 108.0164
RA_OF_ASC_NODE = 50.6209
ARG_OF_PERICENTER = 290.5033
MEAN_ANOMALY   = 69.5959

EPHEMERIS_TYPE = 0
CLASSIFICATION_TYPE = U
NORAD_CAT_ID   = 10967
ELEMENT_SET_NO = 999
REV_AT_EPOCH   = 50135
BSTAR          = .12226468E-3
MEAN_MOTION_DOT = .3E-5
MEAN_MOTION_DDOT = 0

CCSDS_OMM_VERS = 2.0
CREATION_DATE  = 
ORIGINATOR     = 

OBJECT_NAME    = SL-14 R/B
OBJECT_ID      = 1979-011B
CENTER_NAME    = EARTH
REF_FRAME      = TEME
TIME_SYSTEM    = UTC
MEAN_ELEMENT_THEORY = SGP/SGP4

EPOCH          = 2026-02-02T07:13:36.980544
MEAN_MOTION    = 14.91860947
ECCENTRICITY   = .00162714
INCLINATION    = 82.5261
RA_OF_ASC_NODE = 130.1463
ARG_OF_PERICENTER = 170.6370
MEAN_ANOMALY   = 189.5157

EPHEMERIS_TYPE = 0
CLASSIFICATION_TYPE = U
NORAD_CAT_ID   = 11267
ELEMENT_SET_NO = 999
REV_AT_EPOCH   = 52350
BSTAR          = .74515283E-4
MEAN_MOTION_DOT = .78E-5
MEAN_MOTION_DDOT = 0

CCSDS_OMM_VERS = 2.0
CREATION_DATE  = 
ORIGINATOR     = 

OBJECT_NAME    = SL-8 R/B
OBJECT_ID      = 1979-089B
CENTER_NAME    = EARTH
REF_FRAME      = TEME
TIME_SYSTEM    = UTC
MEAN_ELEMENT_THEORY = SGP/SGP4

EPOCH          = 2026-02-02T07:15:44.578656
MEAN_MOTION    = 14.42326806
ECCENTRICITY   = .00163007
INCLINATION    = 74.0695
RA_OF_ASC_NODE = 156.5448
ARG_OF_PERICENTER = 334.0140
MEAN_ANOMALY   = 26.0196

EPHEMERIS_TYPE = 0
CLASSIFICATION_TYPE = U
NORAD_CAT_ID   = 11574
ELEMENT_SET_NO = 999
REV_AT_EPOCH   = 43100
BSTAR          = .10002299E-3
MEAN_MOTION_DOT = .304E-5
MEAN_MOTION_DDOT = 0

CCSDS_OMM_VERS = 2.0
CREATION_DATE  = 
ORIGINATOR     = 

OBJECT_NAME    = SL-14 R/B
OBJECT_ID      = 1980-005B
CENTER_NAME    = EARTH
REF_FRAME      = TEME
TIME_SYSTEM    = UTC
MEAN_ELEMENT_THEORY = SGP/SGP4

EPOCH          = 2026-02-02T06:58:54.437376
MEAN_MOTION    = 14.90879069
ECCENTRICITY   = .00141567
INCLINATION    = 82.5170
RA_OF_ASC_NODE = 340.8036
ARG_OF_PERICENTER = 283.4290
MEAN_ANOMALY   = 76.5351

EPHEMERIS_TYPE = 0
CLASSIFICATION_TYPE = U
NORAD_CAT_ID   = 11672
ELEMENT_SET_NO = 999
REV_AT_EPOCH   = 47121
BSTAR          = .79127417E-4
MEAN_MOTION_DOT = .806E-5
MEAN_MOTION_DDOT = 0

CCSDS_OMM_VERS = 2.0
CREATION_DATE  = 
ORIGINATOR     = 

OBJECT_NAME    = SL-8 R/B
OBJECT_ID      = 1981-003B
CENTER_NAME    = EARTH
REF_FRAME      = TEME
TIME_SYSTEM    = UTC
MEAN_ELEMENT_THEORY = SGP/SGP4

EPOCH          = 2026-02-02T06:56:32.050176
MEAN_MOTION    = 15.09616738
ECCENTRICITY   = .0264784
INCLINATION    = 82.9400
RA_OF_ASC_NODE = 322.7236
ARG_OF_PERICENTER = 302.4197
MEAN_ANOMALY   = 55.1666

EPHEMERIS_TYPE = 0
CLASSIFICATION_TYPE = U
NORAD_CAT_ID   = 12139
ELEMENT_SET_NO = 999
REV_AT_EPOCH   = 30933
BSTAR          = .63639111E-3
MEAN_MOTION_DOT = .23965E-3
MEAN_MOTION_DDOT = 0

CCSDS_OMM_VERS = 2.0
CREATION_DATE  = 
ORIGINATOR     = 

OBJECT_NAME    = SL-3 R/B
OBJECT_ID      = 1981-046B
CENTER_NAME    = EARTH
REF_FRAME      = TEME
TIME_SYSTEM    = UTC
MEAN_ELEMENT_THEORY = SGP/SGP4

EPOCH          = 2026-02-02T06:38:55.885344
MEAN_MOTION    = 15.40980451
ECCENTRICITY   = .00203397
INCLINATION    = 81.2350
RA_OF_ASC_NODE = 332.2239
ARG_OF_PERICENTER = 138.0032
MEAN_ANOMALY   = 222.2775

EPHEMERIS_TYPE = 0
CLASSIFICATION_TYPE = U
NORAD_CAT_ID   = 12465
ELEMENT_SET_NO = 999
REV_AT_EPOCH   = 43297
BSTAR          = .30351543E-3
MEAN_MOTION_DOT = .12632E-3
MEAN_MOTION_DDOT = 0

CCSDS_OMM_VERS = 2.0
CREATION_DATE  = 
ORIGINATOR     = 

OBJECT_NAME    = SL-3 R/B
OBJECT_ID      = 1981-103B
CENTER_NAME    = EARTH
REF_FRAME      = TEME
TIME_SYSTEM    = UTC
MEAN_ELEMENT_THEORY = SGP/SGP4

EPOCH          = 2026-02-02T06:01:31.123488
MEAN_MOTION    = 15.20938682
ECCENTRICITY   = .00140908
INCLINATION    = 81.1563
RA_OF_ASC_NODE = 254.9991
ARG_OF_PERICENTER = 47.2296
MEAN_ANOMALY   = 313.0118

EPHEMERIS_TYPE = 0
CLASSIFICATION_TYPE = U
NORAD_CAT_ID   = 12904
ELEMENT_SET_NO = 999
REV_AT_EPOCH   = 96784
BSTAR          = .18886969E-3
MEAN_MOTION_DOT = .4215E-4
MEAN_MOTION_DDOT = 0

CCSDS_OMM_VERS = 2.0
CREATION_DATE  = 
ORIGINATOR     = 

OBJECT_NAME    = SL-3 R/B
OBJECT_ID      = 1982-013B
CENTER_NAME    = EARTH
REF_FRAME      = TEME
TIME_SYSTEM    = UTC
MEAN_ELEMENT_THEORY = SGP/SGP4

EPOCH          = 2026-02-02T06:35:11.054400
MEAN_MOTION    = 15.21613515
ECCENTRICITY   = .00218707
INCLINATION    = 81.1729
RA_OF_ASC_NODE = 202.2621
ARG_OF_PERICENTER = 300.4965
MEAN_ANOMALY   = 59.4107

EPHEMERIS_TYPE = 0
CLASSIFICATION_TYPE = U
NORAD_CAT_ID   = 13068
ELEMENT_SET_NO = 999
REV_AT_EPOCH   = 39896
BSTAR          = .22022097E-3
MEAN_MOTION_DOT = .5027E-4
MEAN_MOTION_DDOT = 0

CCSDS_OMM_VERS = 2.0
CREATION_DATE  = 
ORIGINATOR     = 

OBJECT_NAME    = SL-3 R/B
OBJECT_ID      = 1982-039B
CENTER_NAME    = EARTH
REF_FRAME      = TEME
TIME_SYSTEM    = UTC
MEAN_ELEMENT_THEORY = SGP/SGP4

EPOCH          = 2026-02-02T06:29:36.153312
MEAN_MOTION    = 15.09880558
ECCENTRICITY   = .00300748
INCLINATION    = 81.1627
RA_OF_ASC_NODE = 256.7843
ARG_OF_PERICENTER = 80.3351
MEAN_ANOMALY   = 280.1270

EPHEMERIS_TYPE = 0
CLASSIFICATION_TYPE = U
NORAD_CAT_ID   = 13154
ELEMENT_SET_NO = 999
REV_AT_EPOCH   = 37629
BSTAR          = .13944994E-3
MEAN_MOTION_DOT = .2305E-4
MEAN_MOTION_DDOT = 0

